CCSDS_OMM_VERS = 2.0
CREATION_DATE  = 
ORIGINATOR     = 

OBJECT_NAME    = STARLINK-36422
OBJECT_ID      = 2026-003L
CENTER_NAME    = EARTH
REF_FRAME      = TEME
TIME_SYSTEM    = UTC
MEAN_ELEMENT_THEORY = SGP/SGP4

EPOCH          = 2026-01-25T06:00:00.999648
MEAN_MOTION    = 15.75001258
ECCENTRICITY   = .00016274
INCLINATION    = 42.9989
RA_OF_ASC_NODE = 116.5089
ARG_OF_PERICENTER = 261.2182
MEAN_ANOMALY   = 82.1264

EPHEMERIS_TYPE = 0
CLASSIFICATION_TYPE = U
NORAD_CAT_ID   = 67344
ELEMENT_SET_NO = 999
REV_AT_EPOCH   = 368
BSTAR          = .61033785E-3
MEAN_MOTION_DOT = .94172E-3
MEAN_MOTION_DDOT = 0

CCSDS_OMM_VERS = 2.0
CREATION_DATE  = 
ORIGINATOR     = 

OBJECT_NAME    = STARLINK-35676
OBJECT_ID      = 2026-003M
CENTER_NAME    = EARTH
REF_FRAME      = TEME
TIME_SYSTEM    = UTC
MEAN_ELEMENT_THEORY = SGP/SGP4

EPOCH          = 2026-01-25T06:00:00.999648
MEAN_MOTION    = 15.75015642
ECCENTRICITY   = .00016371
INCLINATION    = 42.9989
RA_OF_ASC_NODE = 116.5047
ARG_OF_PERICENTER = 257.2320
MEAN_ANOMALY   = 88.0231

EPHEMERIS_TYPE = 0
CLASSIFICATION_TYPE = U
NORAD_CAT_ID   = 67345
ELEMENT_SET_NO = 999
REV_AT_EPOCH   = 368
BSTAR          = .47718954E-3
MEAN_MOTION_DOT = .73388E-3
MEAN_MOTION_DDOT = 0

CCSDS_OMM_VERS = 2.0
CREATION_DATE  = 
ORIGINATOR     = 

OBJECT_NAME    = STARLINK-36472
OBJECT_ID      = 2026-003N
CENTER_NAME    = EARTH
REF_FRAME      = TEME
TIME_SYSTEM    = UTC
MEAN_ELEMENT_THEORY = SGP/SGP4

EPOCH          = 2026-01-25T06:00:00.999648
MEAN_MOTION    = 15.74992895
ECCENTRICITY   = .00017897
INCLINATION    = 42.9989
RA_OF_ASC_NODE = 116.4998
ARG_OF_PERICENTER = 261.7128
MEAN_ANOMALY   = 85.4596

EPHEMERIS_TYPE = 0
CLASSIFICATION_TYPE = U
NORAD_CAT_ID   = 67346
ELEMENT_SET_NO = 999
REV_AT_EPOCH   = 368
BSTAR          = .87848375E-3
MEAN_MOTION_DOT = .136393E-2
MEAN_MOTION_DDOT = 0

CCSDS_OMM_VERS = 2.0
CREATION_DATE  = 
ORIGINATOR     = 

OBJECT_NAME    = STARLINK-36420
OBJECT_ID      = 2026-003P
CENTER_NAME    = EARTH
REF_FRAME      = TEME
TIME_SYSTEM    = UTC
MEAN_ELEMENT_THEORY = SGP/SGP4

EPOCH          = 2026-01-25T06:00:00.999648
MEAN_MOTION    = 15.74999766
ECCENTRICITY   = .00015049
INCLINATION    = 42.9990
RA_OF_ASC_NODE = 116.4908
ARG_OF_PERICENTER = 276.3518
MEAN_ANOMALY   = 74.6277

EPHEMERIS_TYPE = 0
CLASSIFICATION_TYPE = U
NORAD_CAT_ID   = 67347
ELEMENT_SET_NO = 999
REV_AT_EPOCH   = 369
BSTAR          = .74842063E-3
MEAN_MOTION_DOT = .115878E-2
MEAN_MOTION_DDOT = 0

CCSDS_OMM_VERS = 2.0
CREATION_DATE  = 
ORIGINATOR     = 

OBJECT_NAME    = STARLINK-36467
OBJECT_ID      = 2026-003Q
CENTER_NAME    = EARTH
REF_FRAME      = TEME
TIME_SYSTEM    = UTC
MEAN_ELEMENT_THEORY = SGP/SGP4

EPOCH          = 2026-01-25T06:00:00.999648
MEAN_MOTION    = 15.74983514
ECCENTRICITY   = .00014338
INCLINATION    = 42.9992
RA_OF_ASC_NODE = 116.4958
ARG_OF_PERICENTER = 262.7643
MEAN_ANOMALY   = 86.3304

EPHEMERIS_TYPE = 0
CLASSIFICATION_TYPE = U
NORAD_CAT_ID   = 67348
ELEMENT_SET_NO = 999
REV_AT_EPOCH   = 369
BSTAR          = .98534153E-3
MEAN_MOTION_DOT = .153286E-2
MEAN_MOTION_DDOT = 0

CCSDS_OMM_VERS = 2.0
CREATION_DATE  = 
ORIGINATOR     = 

OBJECT_NAME    = STARLINK-36457
OBJECT_ID      = 2026-003R
CENTER_NAME    = EARTH
REF_FRAME      = TEME
TIME_SYSTEM    = UTC
MEAN_ELEMENT_THEORY = SGP/SGP4

EPOCH          = 2026-01-25T06:00:00.999648
MEAN_MOTION    = 15.74993166
ECCENTRICITY   = .00014938
INCLINATION    = 42.9989
RA_OF_ASC_NODE = 116.4853
ARG_OF_PERICENTER = 260.7650
MEAN_ANOMALY   = 92.1643

EPHEMERIS_TYPE = 0
CLASSIFICATION_TYPE = U
NORAD_CAT_ID   = 67349
ELEMENT_SET_NO = 999
REV_AT_EPOCH   = 369
BSTAR          = .80917786E-3
MEAN_MOTION_DOT = .12543E-2
MEAN_MOTION_DDOT = 0

CCSDS_OMM_VERS = 2.0
CREATION_DATE  = 
ORIGINATOR     = 

OBJECT_NAME    = STARLINK-36475
OBJECT_ID      = 2026-003S
CENTER_NAME    = EARTH
REF_FRAME      = TEME
TIME_SYSTEM    = UTC
MEAN_ELEMENT_THEORY = SGP/SGP4

EPOCH          = 2026-01-25T06:00:00.999648
MEAN_MOTION    = 15.74992630
ECCENTRICITY   = .00018221
INCLINATION    = 42.9988
RA_OF_ASC_NODE = 116.4805
ARG_OF_PERICENTER = 245.5373
MEAN_ANOMALY   = 109.3076

EPHEMERIS_TYPE = 0
CLASSIFICATION_TYPE = U
NORAD_CAT_ID   = 67350
ELEMENT_SET_NO = 999
REV_AT_EPOCH   = 368
BSTAR          = .81361558E-3
MEAN_MOTION_DOT = .126131E-2
MEAN_MOTION_DDOT = 0

CCSDS_OMM_VERS = 2.0
CREATION_DATE  = 
ORIGINATOR     = 

OBJECT_NAME    = STARLINK-36478
OBJECT_ID      = 2026-003T
CENTER_NAME    = EARTH
REF_FRAME      = TEME
TIME_SYSTEM    = UTC
MEAN_ELEMENT_THEORY = SGP/SGP4

EPOCH          = 2026-01-25T06:00:00.999648
MEAN_MOTION    = 15.75000692
ECCENTRICITY   = .00017516
INCLINATION    = 42.9990
RA_OF_ASC_NODE = 116.4754
ARG_OF_PERICENTER = 269.0241
MEAN_ANOMALY   = 87.7513

EPHEMERIS_TYPE = 0
CLASSIFICATION_TYPE = U
NORAD_CAT_ID   = 67351
ELEMENT_SET_NO = 999
REV_AT_EPOCH   = 368
BSTAR          = .68727095E-3
MEAN_MOTION_DOT = .106254E-2
MEAN_MOTION_DDOT = 0

CCSDS_OMM_VERS = 2.0
CREATION_DATE  = 
ORIGINATOR     = 

OBJECT_NAME    = STARLINK-36479
OBJECT_ID      = 2026-003U
CENTER_NAME    = EARTH
REF_FRAME      = TEME
TIME_SYSTEM    = UTC
MEAN_ELEMENT_THEORY = SGP/SGP4

EPOCH          = 2026-01-25T06:00:00.999648
MEAN_MOTION    = 15.74968129
ECCENTRICITY   = .00018753
INCLINATION    = 42.9991
RA_OF_ASC_NODE = 116.4708
ARG_OF_PERICENTER = 246.2048
MEAN_ANOMALY   = 112.4814

EPHEMERIS_TYPE = 0
CLASSIFICATION_TYPE = U
NORAD_CAT_ID   = 67352
ELEMENT_SET_NO = 999
REV_AT_EPOCH   = 369
BSTAR          = .11431934E-2
MEAN_MOTION_DOT = .178337E-2
MEAN_MOTION_DDOT = 0

CCSDS_OMM_VERS = 2.0
CREATION_DATE  = 
ORIGINATOR     = 

OBJECT_NAME    = STARLINK-36474
OBJECT_ID      = 2026-003V
CENTER_NAME    = EARTH
REF_FRAME      = TEME
TIME_SYSTEM    = UTC
MEAN_ELEMENT_THEORY = SGP/SGP4

EPOCH          = 2026-01-25T06:00:00.999648
MEAN_MOTION    = 15.74985179
ECCENTRICITY   = .00014993
INCLINATION    = 42.9989
RA_OF_ASC_NODE = 116.4659
ARG_OF_PERICENTER = 248.2253
MEAN_ANOMALY   = 112.3730

EPHEMERIS_TYPE = 0
CLASSIFICATION_TYPE = U
NORAD_CAT_ID   = 67353
ELEMENT_SET_NO = 999
REV_AT_EPOCH   = 369
BSTAR          = .84791509E-3
MEAN_MOTION_DOT = .131508E-2
MEAN_MOTION_DDOT = 0

CCSDS_OMM_VERS = 2.0
CREATION_DATE  = 
ORIGINATOR     = 

OBJECT_NAME    = STARLINK-36448
OBJECT_ID      = 2026-003W
CENTER_NAME    = EARTH
REF_FRAME      = TEME
TIME_SYSTEM    = UTC
MEAN_ELEMENT_THEORY = SGP/SGP4

EPOCH          = 2026-01-25T06:00:00.999648
MEAN_MOTION    = 15.74965121
ECCENTRICITY   = .00019808
INCLINATION    = 42.9989
RA_OF_ASC_NODE = 116.4515
ARG_OF_PERICENTER = 234.4507
MEAN_ANOMALY   = 131.9103

EPHEMERIS_TYPE = 0
CLASSIFICATION_TYPE = U
NORAD_CAT_ID   = 67354
ELEMENT_SET_NO = 999
REV_AT_EPOCH   = 369
BSTAR          = .10877755E-2
MEAN_MOTION_DOT = .169467E-2
MEAN_MOTION_DDOT = 0

CCSDS_OMM_VERS = 2.0
CREATION_DATE  = 
ORIGINATOR     = 

OBJECT_NAME    = STARLINK-36477
OBJECT_ID      = 2026-003X
CENTER_NAME    = EARTH
REF_FRAME      = TEME
TIME_SYSTEM    = UTC
MEAN_ELEMENT_THEORY = SGP/SGP4

EPOCH          = 2026-01-25T06:00:00.999648
MEAN_MOTION    = 15.75018277
ECCENTRICITY   = .00018083
INCLINATION    = 42.9989
RA_OF_ASC_NODE = 116.4614
ARG_OF_PERICENTER = 278.8129
MEAN_ANOMALY   = 83.6955

EPHEMERIS_TYPE = 0
CLASSIFICATION_TYPE = U
NORAD_CAT_ID   = 67355
ELEMENT_SET_NO = 999
REV_AT_EPOCH   = 368
BSTAR          = .57679184E-3
MEAN_MOTION_DOT = .88982E-3
MEAN_MOTION_DDOT = 0

