STARLINK-36422          
1 67344U 26003L   26025.25001157  .00094172  00000+0  61034-3 0  9990
2 67344  42.9989 116.5089 0001627 261.2182  82.1264 15.75001258  3689
STARLINK-35676          
1 67345U 26003M   26025.25001157  .00073388  00000+0  47719-3 0  9991
2 67345  42.9989 116.5047 0001637 257.2320  88.0231 15.75015642  3685
STARLINK-36472          
1 67346U 26003N   26025.25001157  .00136393  00000+0  87848-3 0  9995
2 67346  42.9989 116.4998 0001789 261.7128  85.4596 15.74992895  3682
STARLINK-36420          
1 67347U 26003P   26025.25001157  .00115878  00000+0  74842-3 0  9991
2 67347  42.9990 116.4908 0001504 276.3518  74.6277 15.74999766  3697
STARLINK-36467          
1 67348U 26003Q   26025.25001157  .00153286  00000+0  98534-3 0  9991
2 67348  42.9992 116.4958 0001433 262.7643  86.3304 15.74983514  3699
STARLINK-36457          
1 67349U 26003R   26025.25001157  .00125430  00000+0  80918-3 0  9999
2 67349  42.9989 116.4853 0001493 260.7650  92.1643 15.74993166  3697
STARLINK-36475          
1 67350U 26003S   26025.25001157  .00126131  00000+0  81362-3 0  9994
2 67350  42.9988 116.4805 0001822 245.5373 109.3076 15.74992630  3689
STARLINK-36478          
1 67351U 26003T   26025.25001157  .00106254  00000+0  68727-3 0  9999
2 67351  42.9990 116.4754 0001751 269.0241  87.7513 15.75000692  3686
STARLINK-36479          
1 67352U 26003U   26025.25001157  .00178337  00000+0  11432-2 0  9991
2 67352  42.9991 116.4708 0001875 246.2048 112.4814 15.74968129  3694
STARLINK-36474          
1 67353U 26003V   26025.25001157  .00131508  00000+0  84792-3 0  9991
2 67353  42.9989 116.4659 0001499 248.2253 112.3730 15.74985179  3699
STARLINK-36448          
1 67354U 26003W   26025.25001157  .00169467  00000+0  10878-2 0  9990
2 67354  42.9989 116.4515 0001980 234.4507 131.9103 15.74965121  3691
STARLINK-36477          
1 67355U 26003X   26025.25001157  .00088982  00000+0  57679-3 0  9994
2 67355  42.9989 116.4614 0001808 278.8129  83.6955 15.75018277  3682
